        SPCS","OBJECT_NAME":"STARLINK-1652","OBJECT_ID":"2020-062AU","CENTER_NAME":"EARTH","REF_FRAME":"TEME","TIME_SYSTEM":"UTC","MEAN_ELEMENT_THEORY":"SGP4","EPOCH":"2021-07-25T16:30:32.535648","MEAN_MOTION":16.39292647,"ECCENTRICITY":0.0012977,"INCLINATION":53.0465,"RA_OF_ASC_NODE":1.7252,"ARG_OF_PERICENTER":301.4169,"MEAN_ANOMALY":58.9307,"EPHEMERIS_TYPE":0,"CLASSIFICATION_TYPE":"U","NORAD_CAT_ID":46367,"ELEMENT_SET_NO":999,"REV_AT_EPOCH":5049,"BSTAR":0.0018768,"MEAN_MOTION_DOT":0.24643069,"MEAN_MOTION_DDOT":0.000012458,"SEMIMAJOR_AXIS":6545.822,"PERIOD":87.843,"APOAPSIS":176.181,"PERIAPSIS":159.192,"OBJECT_TYPE":"PAYLOAD","RCS_SIZE":"LARGE","COUNTRY_CODE":"US","LAUNCH_DATE":"2020-09-03","SITE":"AFETR","DECAY_DATE":"2021-07-25","DECAYED":1,"FILE":3082983,"GP_ID":181454901,"TLE_LINE0":"0
        STARLINK-1652","TLE_LINE1":"1 46367U 20062AU  21206.68787657  .24643069  12458-4  18768-2
        0  9991","TLE_LINE2":"2 46367  53.0465   1.7252 0012977 301.4169  58.9307
        16.39292647 50497"},"height_km":null,"latitude":null,"launch":"5ef6a1e90059c33cee4a828a","longitude":null,"velocity_kms":null,"version":"v1.0","id":"5f5a9c1e2fd30c00065e5ebc"},{"spaceTrack":{"CCSDS_OMM_VERS":"2.0","COMMENT":"GENERATED
        VIA SPACE-TRACK.ORG API","CREATION_DATE":"2021-10-17T15:26:13","ORIGINATOR":"18
        SPCS","OBJECT_NAME":"STARLINK-1739","OBJECT_ID":"2020-062AQ","CENTER_NAME":"EARTH","REF_FRAME":"TEME","TIME_SYSTEM":"UTC","MEAN_ELEMENT_THEORY":"SGP4","EPOCH":"2021-10-17T07:17:10.771296","MEAN_MOTION":15.06386934,"ECCENTRICITY":0.0001104,"INCLINATION":53.0547,"RA_OF_ASC_NODE":333.99,"ARG_OF_PERICENTER":97.702,"MEAN_ANOMALY":262.4095,"EPHEMERIS_TYPE":0,"CLASSIFICATION_TYPE":"U","NORAD_CAT_ID":46363,"ELEMENT_SET_NO":999,"REV_AT_EPOCH":6327,"BSTAR":0.00012843,"MEAN_MOTION_DOT":0.00001631,"MEAN_MOTION_DDOT":0,"SEMIMAJOR_AXIS":6925.389,"PERIOD":95.593,"APOAPSIS":548.018,"PERIAPSIS":546.489,"OBJECT_TYPE":"PAYLOAD","RCS_SIZE":"LARGE","COUNTRY_CODE":"US","LAUNCH_DATE":"2020-09-03","SITE":"AFETR","DECAY_DATE":null,"DECAYED":0,"FILE":3167019,"GP_ID":187365821,"TLE_LINE0":"0
        STARLINK-1739","TLE_LINE1":"1 46363U 20062AQ  21290.30359689  .00001631  00000-0  12843-3
        0  9991","TLE_LINE2":"2 46363  53.0547 333.9900 0001104  97.7020 262.4095
        15.06386934 63277"},"height_km":562.0452970092592,"latitude":-42.30541074733675,"launch":"5ef6a1e90059c33cee4a828a","longitude":14.135004033939598,"velocity_kms":7.579734091713676,"version":"v1.0","id":"5f5a9c1e2fd30c00065e5ebb"},{"spaceTrack":{"CCSDS_OMM_VERS":"2.0","COMMENT":"GENERATED
        VIA SPACE-TRACK.ORG API","CREATION_DATE":"2021-08-17T11:26:10","ORIGINATOR":"18
        SPCS","OBJECT_NAME":"STARLINK-1691","OBJECT_ID":"2020-062BA","CENTER_NAME":"EARTH","REF_FRAME":"TEME","TIME_SYSTEM":"UTC","MEAN_ELEMENT_THEORY":"SGP4","EPOCH":"2021-08-17T11:07:32.389248","MEAN_MOTION":16.49810577,"ECCENTRICITY":0.0024998,"INCLINATION":53.0406,"RA_OF_ASC_NODE":233.474,"ARG_OF_PERICENTER":41.4098,"MEAN_ANOMALY":81.2348,"EPHEMERIS_TYPE":0,"CLASSIFICATION_TYPE":"U","NORAD_CAT_ID":46373,"ELEMENT_SET_NO":999,"REV_AT_EPOCH":5431,"BSTAR":0.00048391,"MEAN_MOTION_DOT":0.57479253,"MEAN_MOTION_DDOT":0.000012924,"SEMIMAJOR_AXIS":6517.971,"PERIOD":87.283,"APOAPSIS":156.13,"PERIAPSIS":123.543,"OBJECT_TYPE":"PAYLOAD","RCS_SIZE":"LARGE","COUNTRY_CODE":"US","LAUNCH_DATE":"2020-09-03","SITE":"AFETR","DECAY_DATE":"2021-08-17","DECAYED":1,"FILE":3098157,"GP_ID":182896302,"TLE_LINE0":"0
        STARLINK-1691","TLE_LINE1":"1 46373U 20062BA  21229.46356932  .57479253  12924-4  48391-3
        0  9999","TLE_LINE2":"2 46373  53.0406 233.4740 0024998  41.4098  81.2348
        16.49810577 54311"},"height_km":null,"latitude":null,"launch":"5ef6a1e90059c33cee4a828a","longitude":null,"velocity_kms":null,"version":"v1.0","id":"5f5a9c1e2fd30c00065e5ec2"},{"spaceTrack":{"CCSDS_OMM_VERS":"2.0","COMMENT":"GENERATED
        VIA SPACE-TRACK.ORG API","CREATION_DATE":"2021-10-17T15:26:13","ORIGINATOR":"18
        SPCS","OBJECT_NAME":"STARLINK-1617","OBJECT_ID":"2020-062AB","CENTER_NAME":"EARTH","REF_FRAME":"TEME","TIME_SYSTEM":"UTC","MEAN_ELEMENT_THEORY":"SGP4","EPOCH":"2021-10-17T06:57:54.909504","MEAN_MOTION":15.06393543,"ECCENTRICITY":0.0001072,"INCLINATION":53.0556,"RA_OF_ASC_NODE":19.04,"ARG_OF_PERICENTER":98.4,"MEAN_ANOMALY":261.7111,"EPHEMERIS_TYPE":0,"CLASSIFICATION_TYPE":"U","NORAD_CAT_ID":46350,"ELEMENT_SET_NO":999,"REV_AT_EPOCH":6267,"BSTAR":0.00011242,"MEAN_MOTION_DOT":0.00001393,"MEAN_MOTION_DDOT":0,"SEMIMAJOR_AXIS":6925.368,"PERIOD":95.593,"APOAPSIS":547.976,"PERIAPSIS":546.491,"OBJECT_TYPE":"PAYLOAD","RCS_SIZE":"LARGE","COUNTRY_CODE":"US","LAUNCH_DATE":"2020-09-03","SITE":"AFETR","DECAY_DATE":null,"DECAYED":0,"FILE":3166920,"GP_ID":187363505,"TLE_LINE0":"0
        STARLINK-1617","TLE_LINE1":"1 46350U 20062AB  21290.29021886  .00001393  00000-0  11242-3
        0  9997","TLE_LINE2":"2 46350  53.0556  19.0400 0001072  98.4000 261.7111
        15.06393543 62678"},"height_km":547.2702186904562,"latitude":12.302213609978084,"launch":"5ef6a1e90059c33cee4a828a","longitude":111.4169743920147,"velocity_kms":7.5906315999630305,"version":"v1.0","id":"5f5a9c1e2fd30c00065e5ebe"},{"spaceTrack":{"CCSDS_OMM_VERS":"2.0","COMMENT":"GENERATED
        VIA SPACE-TRACK.ORG API","CREATION_DATE":"2021-10-16T22:36:11","ORIGINATOR":"18
        SPCS","OBJECT_NAME":"STARLINK-1760","OBJECT_ID":"2020-062S","CENTER_NAME":"EARTH","REF_FRAME":"TEME","TIME_SYSTEM":"UTC","MEAN_ELEMENT_THEORY":"SGP4","EPOCH":"2021-10-16T12:52:29.076960","MEAN_MOTION":15.06395314,"ECCENTRICITY":0.0001164,"INCLINATION":53.0541,"RA_OF_ASC_NODE":2.4463,"ARG_OF_PERICENTER":89.5693,"MEAN_ANOMALY":270.5429,"EPHEMERIS_TYPE":0,"CLASSIFICATION_TYPE":"U","NORAD_CAT_ID":46341,"ELEMENT_SET_NO":999,"REV_AT_EPOCH":6284,"BSTAR":0.00010177,"MEAN_MOTION_DOT":0.00001235,"MEAN_MOTION_DDOT":0,"SEMIMAJOR_AXIS":6925.363,"PERIOD":95.592,"APOAPSIS":548.034,"PERIAPSIS":546.422,"OBJECT_TYPE":"PAYLOAD","RCS_SIZE":"LARGE","COUNTRY_CODE":"US","LAUNCH_DATE":"2020-09-03","SITE":"AFETR","DECAY_DATE":null,"DECAYED":0,"FILE":3166352,"GP_ID":187328878,"TLE_LINE0":"0
        STARLINK-1760","TLE_LINE1":"1 46341U 20062S   21289.53644765  .00001235  00000-0  10177-3
        0  9990","TLE_LINE2":"2 46341  53.0541   2.4463 0001164  89.5693 270.5429
        15.06395314 62845"},"height_km":547.9475380897175,"latitude":26.867752601224783,"launch":"5ef6a1e90059c33cee4a828a","longitude":-120.2286305156891,"velocity_kms":7.591939058654439,"version":"v1.0","id":"5f5a9c1e2fd30c00065e5ec1"},{"spaceTrack":{"CCSDS_OMM_VERS":"2.0","COMMENT":"GENERATED
        VIA SPACE-TRACK.ORG API","CREATION_DATE":"2021-10-17T15:26:13","ORIGINATOR":"18
        SPCS","OBJECT_NAME":"STARLINK-1550","OBJECT_ID":"2020-062AS","CENTER_NAME":"EARTH","REF_FRAME":"TEME","TIME_SYSTEM":"UTC","MEAN_ELEMENT_THEORY":"SGP4","EPOCH":"2021-10-17T06:45:20.428416","MEAN_MOTION":15.0638188,"ECCENTRICITY":0.0001197,"INCLINATION":53.0549,"RA_OF_ASC_NODE":334.0897,"ARG_OF_PERICENTER":96.2322,"MEAN_ANOMALY":263.8803,"EPHEMERIS_TYPE":0,"CLASSIFICATION_TYPE":"U","NORAD_CAT_ID":46365,"ELEMENT_SET_NO":999,"REV_AT_EPOCH":6327,"BSTAR":0.00017623,"MEAN_MOTION_DOT":0.00002343,"MEAN_MOTION_DDOT":0,"SEMIMAJOR_AXIS":6925.404,"PERIOD":95.593,"APOAPSIS":548.098,"PERIAPSIS":546.44,"OBJECT_TYPE":"PAYLOAD","RCS_SIZE":"LARGE","COUNTRY_CODE":"US","LAUNCH_DATE":"2020-09-03","SITE":"AFETR","DECAY_DATE":null,"DECAYED":0,"FILE":3166914,"GP_ID":187362765,"TLE_LINE0":"0
        STARLINK-1550","TLE_LINE1":"1 46365U 20062AS  21290.28148644  .00002343  00000-0  17623-3
        0  9999","TLE_LINE2":"2 46365  53.0549 334.0897 0001197  96.2322 263.8803
        15.06381880 63276"},"height_km":551.3853576386,"latitude":45.509885270377715,"launch":"5ef6a1e90059c33cee4a828a","longitude":106.61908678474653,"velocity_kms":7.592145633305932,"version":"v1.0","id":"5f5a9c1e2fd30c00065e5ec4"},{"spaceTrack":{"CCSDS_OMM_VERS":"2.0","COMMENT":"GENERATED
        VIA SPACE-TRACK.ORG API","CREATION_DATE":"2021-10-17T15:26:13","ORIGINATOR":"18
        SPCS","OBJECT_NAME":"STARLINK-1688","OBJECT_ID":"2020-062AY","CENTER_NAME":"EARTH","REF_FRAME":"TEME","TIME_SYSTEM":"UTC","MEAN_ELEMENT_THEORY":"SGP4","EPOCH":"2021-10-17T07:00:34.179264","MEAN_MOTION":15.0639327,"ECCENTRICITY":0.0001168,"INCLINATION":53.0546,"RA_OF_ASC_NODE":359.0532,"ARG_OF_PERICENTER":71.4875,"MEAN_ANOMALY":288.624,"EPHEMERIS_TYPE":0,"CLASSIFICATION_TYPE":"U","NORAD_CAT_ID":46371,"ELEMENT_SET_NO":999,"REV_AT_EPOCH":6295,"BSTAR":0.00017035,"MEAN_MOTION_DOT":0.00002256,"MEAN_MOTION_DDOT":0,"SEMIMAJOR_AXIS":6925.369,"PERIOD":95.593,"APOAPSIS":548.043,"PERIAPSIS":546.425,"OBJECT_TYPE":"PAYLOAD","RCS_SIZE":"LARGE","COUNTRY_CODE":"US","LAUNCH_DATE":"2020-09-03","SITE":"AFETR","DECAY_DATE":null,"DECAYED":0,"FILE":3166999,"GP_ID":187364994,"TLE_LINE0":"0
        STARLINK-1688","TLE_LINE1":"1 46371U 20062AY  21290.29206226  .00002256  00000-0  17035-3
        0  9998","TLE_LINE2":"2 46371  53.0546 359.0532 0001168  71.4875 288.6240
        15.06393270 62959"},"height_km":547.3299245426069,"latitude":4.364271682751619,"launch":"5ef6a1e90059c33cee4a828a","longitude":85.31936086461089,"velocity_kms":7.590052783916034,"version":"v1.0","id":"5f5a9c1e2fd30c00065e5ec5"},{"spaceTrack":{"CCSDS_OMM_VERS":"2.0","COMMENT":"GENERATED
        VIA SPACE-TRACK.ORG API","CREATION_DATE":"2021-10-17T15:26:13","ORIGINATOR":"18
